STARLINK-32689          
1 62440U 24251J   25353.29057287  .00016880  00000+0  58097-3 0  9992
2 62440  53.1601 348.4137 0001767 300.1535  59.9291 15.30186708 55646
STARLINK-32724          
1 62441U 24251K   25353.37699363  .00032040  00000+0  10892-2 0  9995
2 62441  53.1613 348.2463 0001430  67.1633 292.9519 15.30200363 55495
STARLINK-32291          
1 62442U 24251L   25353.25480524  .00019349  00000+0  66353-3 0  9991
2 62442  53.1629 348.9032 0001607  82.8563 277.2621 15.30209053 55321
STARLINK-32736          
1 62443U 24251M   25353.71939742  .00018052  00000+0  62020-3 0  9991
2 62443  53.1627 346.8264 0001366  95.0601 265.0555 15.30197230 55543
STARLINK-32737          
1 62444U 24251N   25353.69776565  .00026561  00000+0  90595-3 0  9993
2 62444  53.1614 344.5594 0002026  87.9690 272.1543 15.30190275 55732
STARLINK-32683          
1 62445U 24251P   25353.41076054  .00017625  00000+0  60585-3 0  9997
2 62445  53.1601 348.4506 0001587 106.6214 253.4961 15.30196903 55658
STARLINK-32726          
1 62446U 24251Q   25353.24530191  .00017178  00000+0  59058-3 0  9992
2 62446  53.1622 348.8392 0003412 155.9997 204.1163 15.30207527 55329
STARLINK-32730          
1 62447U 24251R   25353.23791823  .00019820  00000+0  67930-3 0  9997
2 62447  53.1604 348.7936 0001214 103.7029 256.4107 15.30210448 55636
STARLINK-32719          
1 62448U 24251S   25353.23484039  .00026274  00000+0  89552-3 0  9991
2 62448  53.1608 349.3396 0002479 141.8338 218.2839 15.30218764 55455
STARLINK-32723          
1 62449U 24251T   25353.37804212  .00018211  00000+0  62508-3 0  9990
2 62449  53.1613 348.2493 0000500 148.1064 211.9967 15.30220160 55496
STARLINK-32722          
1 62450U 24251U   25353.37277009  .00012717  00000+0  44067-3 0  9995
2 62450  53.1597 348.2123 0001269  87.1277 272.9869 15.30205937 55280
STARLINK-32720          
1 62451U 24251V   25353.27273471  .00015972  00000+0  55075-3 0  9991
2 62451  53.1608 349.0165 0001327 105.0949 255.0198 15.30169642 55267
STARLINK-32656          
1 62452U 24251W   25353.41814850  .00029081  00000+0  99010-3 0  9993
2 62452  53.1595 348.4968 0001368  85.6443 274.4714 15.30201428 55497
STARLINK-32690          
1 62453U 24251X   25353.69618071  .00008032  00000+0  28301-3 0  9999
2 62453  53.1618 346.6772 0001790  81.4450 278.6754 15.30200603 55324
STARLINK-11518 [DTC]    
1 62462U 24254A   25353.68157970  .00219992  00000+0  16650-2 0  9999
2 62462  42.9985 345.6384 0001372 301.2526  58.8207 15.70953481 56828
STARLINK-11455 [DTC]    
1 62463U 24254B   25353.68688920  .00209998  00000+0  15916-2 0  9993
2 62463  42.9991 345.6813 0001428 307.6675  52.4063 15.70950899 56819
