[{"OBJECT_NAME":"STARLINK-32689","OBJECT_ID":"2024-251J","EPOCH":"2025-12-19T06:58:25.495968","MEAN_MOTION":15.30186708,"ECCENTRICITY":0.0001767,"INCLINATION":53.1601,"RA_OF_ASC_NODE":348.4137,"ARG_OF_PERICENTER":300.1535,"MEAN_ANOMALY":59.9291,"EPHEMERIS_TYPE":0,"CLASSIFICATION_TYPE":"U","NORAD_CAT_ID":62440,"ELEMENT_SET_NO":999,"REV_AT_EPOCH":5564,"BSTAR":0.00058097,"MEAN_MOTION_DOT":0.0001688,"MEAN_MOTION_DDOT":0},{"OBJECT_NAME":"STARLINK-32724","OBJECT_ID":"2024-251K","EPOCH":"2025-12-19T09:02:52.249632","MEAN_MOTION":15.30200363,"ECCENTRICITY":0.000143,"INCLINATION":53.1613,"RA_OF_ASC_NODE":348.2463,"ARG_OF_PERICENTER":67.1633,"MEAN_ANOMALY":292.9519,"EPHEMERIS_TYPE":0,"CLASSIFICATION_TYPE":"U","NORAD_CAT_ID":62441,"ELEMENT_SET_NO":999,"REV_AT_EPOCH":5549,"BSTAR":0.0010892,"MEAN_MOTION_DOT":0.0003204,"MEAN_MOTION_DDOT":0},{"OBJECT_NAME":"STARLINK-32291","OBJECT_ID":"2024-251L","EPOCH":"2025-12-19T06:06:55.172736","MEAN_MOTION":15.30209053,"ECCENTRICITY":0.0001607,"INCLINATION":53.1629,"RA_OF_ASC_NODE":348.9032,"ARG_OF_PERICENTER":82.8563,"MEAN_ANOMALY":277.2621,"EPHEMERIS_TYPE":0,"CLASSIFICATION_TYPE":"U","NORAD_CAT_ID":62442,"ELEMENT_SET_NO":999,"REV_AT_EPOCH":5532,"BSTAR":0.00066353,"MEAN_MOTION_DOT":0.00019349,"MEAN_MOTION_DDOT":0},{"OBJECT_NAME":"STARLINK-32736","OBJECT_ID":"2024-251M","EPOCH":"2025-12-19T17:15:55.937088","MEAN_MOTION":15.3019723,"ECCENTRICITY":0.0001366,"INCLINATION":53.1627,"RA_OF_ASC_NODE":346.8264,"ARG_OF_PERICENTER":95.0601,"MEAN_ANOMALY":265.0555,"EPHEMERIS_TYPE":0,"CLASSIFICATION_TYPE":"U","NORAD_CAT_ID":62443,"ELEMENT_SET_NO":999,"REV_AT_EPOCH":5554,"BSTAR":0.0006202,"MEAN_MOTION_DOT":0.00018052,"MEAN_MOTION_DDOT":0},{"OBJECT_NAME":"STARLINK-32737","OBJECT_ID":"2024-251N","EPOCH":"2025-12-19T16:44:46.952160","MEAN_MOTION":15.30190275,"ECCENTRICITY":0.0002026,"INCLINATION":53.1614,"RA_OF_ASC_NODE":344.5594,"ARG_OF_PERICENTER":87.969,"MEAN_ANOMALY":272.1543,"EPHEMERIS_TYPE":0,"CLASSIFICATION_TYPE":"U","NORAD_CAT_ID":62444,"ELEMENT_SET_NO":999,"REV_AT_EPOCH":5573,"BSTAR":0.00090595,"MEAN_MOTION_DOT":0.00026561,"MEAN_MOTION_DDOT":0},{"OBJECT_NAME":"STARLINK-32683","OBJECT_ID":"2024-251P","EPOCH":"2025-12-19T09:51:29.710656","MEAN_MOTION":15.30196903,"ECCENTRICITY":0.0001587,"INCLINATION":53.1601,"RA_OF_ASC_NODE":348.4506,"ARG_OF_PERICENTER":106.6214,"MEAN_ANOMALY":253.4961,"EPHEMERIS_TYPE":0,"CLASSIFICATION_TYPE":"U","NORAD_CAT_ID":62445,"ELEMENT_SET_NO":999,"REV_AT_EPOCH":5565,"BSTAR":0.00060585,"MEAN_MOTION_DOT":0.00017625,"MEAN_MOTION_DDOT":0},{"OBJECT_NAME":"STARLINK-32726","OBJECT_ID":"2024-251Q","EPOCH":"2025-12-19T05:53:14.085024","MEAN_MOTION":15.30207527,"ECCENTRICITY":0.0003412,"INCLINATION":53.1622,"RA_OF_ASC_NODE":348.8392,"ARG_OF_PERICENTER":155.9997,"MEAN_ANOMALY":204.1163,"EPHEMERIS_TYPE":0,"CLASSIFICATION_TYPE":"U","NORAD_CAT_ID":62446,"ELEMENT_SET_NO":999,"REV_AT_EPOCH":5532,"BSTAR":0.00059058,"MEAN_MOTION_DOT":0.00017178,"MEAN_MOTION_DDOT":0},{"OBJECT_NAME":"STARLINK-32730","OBJECT_ID":"2024-251R","EPOCH":"2025-12-19T05:42:36.135072","MEAN_MOTION":15.30210448,"ECCENTRICITY":0.0001214,"INCLINATION":53.1604,"RA_OF_ASC_NODE":348.7936,"ARG_OF_PERICENTER":103.7029,"MEAN_ANOMALY":256.4107,"EPHEMERIS_TYPE":0,"CLASSIFICATION_TYPE":"U","NORAD_CAT_ID":62447,"ELEMENT_SET_NO":999,"REV_AT_EPOCH":5563,"BSTAR":0.0006793,"MEAN_MOTION_DOT":0.0001982,"MEAN_MOTION_DDOT":0},{"OBJECT_NAME":"STARLINK-32719","OBJECT_ID":"2024-251S","EPOCH":"2025-12-19T05:38:10.209696","MEAN_MOTION":15.30218764,"ECCENTRICITY":0.0002479,"INCLINATION":53.1608,"RA_OF_ASC_NODE":349.3396,"ARG_OF_PERICENTER":141.8338,"MEAN_ANOMALY":218.2839,"EPHEMERIS_TYPE":0,"CLASSIFICATION_TYPE":"U","NORAD_CAT_ID":62448,"ELEMENT_SET_NO":999,"REV_AT_EPOCH":5545,"BSTAR":0.00089552,"MEAN_MOTION_DOT":0.00026274,"MEAN_MOTION_DDOT":0},{"OBJECT_NAME":"STARLINK-32723","OBJECT_ID":"2024-251T","EPOCH":"2025-12-19T09:04:22.839168","MEAN_MOTION":15.3022016,"ECCENTRICITY":5.0e-5,"INCLINATION":53.1613,"RA_OF_ASC_NODE":348.2493,"ARG_OF_PERICENTER":148.1064,"MEAN_ANOMALY":211.9967,"EPHEMERIS_TYPE":0,"CLASSIFICATION_TYPE":"U","NORAD_CAT_ID":62449,"ELEMENT_SET_NO":999,"REV_AT_EPOCH":5549,"BSTAR":0.00062508,"MEAN_MOTION_DOT":0.00018211,"MEAN_MOTION_DDOT":0},{"OBJECT_NAME":"STARLINK-32722","OBJECT_ID":"2024-251U","EPOCH":"2025-12-19T08:56:47.335776","MEAN_MOTION":15.30205937,"ECCENTRICITY":0.0001269,"INCLINATION":53.1597,"RA_OF_ASC_NODE":348.2123,"ARG_OF_PERICENTER":87.1277,"MEAN_ANOMALY":272.9869,"EPHEMERIS_TYPE":0,"CLASSIFICATION_TYPE":"U","NORAD_CAT_ID":62450,"ELEMENT_SET_NO":999,"REV_AT_EPOCH":5528,"BSTAR":0.00044067,"MEAN_MOTION_DOT":0.00012717,"MEAN_MOTION_DDOT":0},{"OBJECT_NAME":"STARLINK-32720","OBJECT_ID":"2024-251V","EPOCH":"2025-12-19T06:32:44.278944","MEAN_MOTION":15.30169642,"ECCENTRICITY":0.0001327,"INCLINATION":53.1608,"RA_OF_ASC_NODE":349.0165,"ARG_OF_PERICENTER":105.0949,"MEAN_ANOMALY":255.0198,"EPHEMERIS_TYPE":0,"CLASSIFICATION_TYPE":"U","NORAD_CAT_ID":62451,"ELEMENT_SET_NO":999,"REV_AT_EPOCH":5526,"BSTAR":0.00055075,"MEAN_MOTION_DOT":0.00015972,"MEAN_MOTION_DDOT":0},{"OBJECT_NAME":"STARLINK-32656","OBJECT_ID":"2024-251W","EPOCH":"2025-12-19T10:02:08.030400","MEAN_MOTION":15.30201428,"ECCENTRICITY":0.0001368,"INCLINATION":53.1595,"RA_OF_ASC_NODE":348.4968,"ARG_OF_PERICENTER":85.6443,"MEAN_ANOMALY":274.4714,"EPHEMERIS_TYPE":0,"CLASSIFICATION_TYPE":"U","NORAD_CAT_ID":62452,"ELEMENT_SET_NO":999,"REV_AT_EPOCH":5549,"BSTAR":0.0009901,"MEAN_MOTION_DOT":0.00029081,"MEAN_MOTION_DDOT":0},{"OBJECT_NAME":"STARLINK-32690","OBJECT_ID":"2024-251X","EPOCH":"2025-12-19T16:42:30.013344","MEAN_MOTION":15.30200603,"ECCENTRICITY":0.000179,"INCLINATION":53.1618,"RA_OF_ASC_NODE":346.6772,"ARG_OF_PERICENTER":81.445,"MEAN_ANOMALY":278.6754,"EPHEMERIS_TYPE":0,"CLASSIFICATION_TYPE":"U","NORAD_CAT_ID":62453,"ELEMENT_SET_NO":999,"REV_AT_EPOCH":5532,"BSTAR":0.00028301,"MEAN_MOTION_DOT":8.032e-5,"MEAN_MOTION_DDOT":0},{"OBJECT_NAME":"STARLINK-11518 [DTC]","OBJECT_ID":"2024-254A","EPOCH":"2025-12-19T16:21:28.486080","MEAN_MOTION":15.70953481,"ECCENTRICITY":0.0001372,"INCLINATION":42.9985,"RA_OF_ASC_NODE":345.6384,"ARG_OF_PERICENTER":301.2526,"MEAN_ANOMALY":58.8207,"EPHEMERIS_TYPE":0,"CLASSIFICATION_TYPE":"U","NORAD_CAT_ID":62462,"ELEMENT_SET_NO":999,"REV_AT_EPOCH":5682,"BSTAR":0.001665,"MEAN_MOTION_DOT":0.00219992,"MEAN_MOTION_DDOT":0},{"OBJECT_NAME":"STARLINK-11455 [DTC]","OBJECT_ID":"2024-254B","EPOCH":"2025-12-19T16:29:07.226880","MEAN_MOTION":15.70950899,"ECCENTRICITY":0.0001428,"INCLINATION":42.9991,"RA_OF_ASC_NODE":345.6813,"ARG_OF_PERICENTER":307.6675,"MEAN_ANOMALY":52.4063,"EPHEMERIS_TYPE":0,"CLASSIFICATION_TYPE":"U","NORAD_CAT_ID":62463,"ELEMENT_SET_NO":999,"REV_AT_EPOCH":5681,"BSTAR":0.0015916,"MEAN_MOTION_DOT":0.00209998,"MEAN_MOTION_DDOT":0}]
